ELYSIUM STAR 2 & LFF    
1 43760U 18099C   24265.63237298  .00097387  00000+0  23159-2 0  9991
2 43760  97.5028 334.5801 0005489 264.4086  95.6534 15.41264998318006
